GLOBALSTAR M023 [+]     
1 25621U 99004A   24002.11337638 -.00000150  00000+0 -25523-3 0  9995
2 25621  52.0095 233.5366 0010827  33.7080 135.5644 12.62441798148618
GLOBALSTAR M040 [-]     
1 25622U 99004B   24001.94823802 -.00000089  00000+0  79584-4 0  9996
2 25622  51.9903 237.4166 0000848  29.5698  75.2872 12.61963064148051
GLOBALSTAR M036 [-]     
1 25623U 99004C   24001.74565499 -.00000074  00000+0  12463-3 0  9996
2 25623  51.9931 203.6666 0012456 110.5068 331.3524 11.86558448115778
GLOBALSTAR M038 [-]     
1 25624U 99004D   24001.78496000 -.00000080  00000+0  12035-3 0  9994
2 25624  51.9947 164.7766 0002360  55.5555  51.9189 12.32490622136727
GLOBALSTAR M022 [-]     
1 25649U 99012A   24001.93113043 -.00000079  00000+0  91430-4 0  9995
2 25649  52.0056 297.7864 0002034 186.8281 279.2627 12.02475402112345
GLOBALSTAR M041 [-]     
1 25650U 99012B   24001.81138460 -.00000078  00000+0  88217-4 0  9992
2 25650  51.9991 163.3297 0001905  19.1320 340.9587 11.96651804114548
GLOBALSTAR M046 [-]     
1 25651U 99012C   24002.19900854 -.00000140  00000+0 -56843-3 0  9999
2 25651  52.0050 266.6100 0001521 289.6451 237.1167 12.09381281119641
